NORAD_CAT_ID,OBJECT_NAME,OBJECT_TYPE,EPOCH,MEAN_MOTION,ECCENTRICITY,INCLINATION,RA_OF_ASC_NODE,ARG_OF_PERICENTER,MEAN_ANOMALY,BSTAR,MEAN_MOTION_DOT,MEAN_MOTION_DDOT,TLE_LINE0,TLE_LINE1,TLE_LINE2,SEMIMAJOR_AXIS,PERIOD,APOGEE,PERIGEE,DECAYED
51779.0,STARLINK-3611,PAYLOAD,2023-09-08 01:48:47,15.08828839,0.0001396,53.2157,120.5426,87.9731,272.1421,0.00011695,1.573e-05,0.0,0 STARLINK-3611,1 51779U 22017M   23251.07554509  .00001573  00000-0  11695-3 0  9990,2 51779  53.2157 120.5426 0001396  87.9731 272.1421 15.08828839 86137,6917.915,95.438,540.745,538.814,0.0
51779.0,STARLINK-3611,PAYLOAD,2023-09-08 20:53:24,15.08839435,0.0001375,53.2169,116.9741,86.9033,273.2116,9.593e-05,1.239e-05,0.0,0 STARLINK-3611,1 51779U 22017M   23251.87042025  .00001239  00000-0  95930-4 0  9997,2 51779  53.2169 116.9741 0001375  86.9033 273.2116 15.08839435 84764,6917.882,95.438,540.698,538.796,0.0
51779.0,STARLINK-3611,PAYLOAD,2023-09-09 00:04:10,15.08842422,0.0001318,53.2164,116.3793,85.0344,275.0798,0.0001213,1.643e-05,0.0,0 STARLINK-3611,1 51779U 22017M   23252.00289769  .00001643  00000-0  12130-3 0  9990,2 51779  53.2164 116.3793 0001318  85.0344 275.0798 15.08842422 86276,6917.873,95.437,540.65,538.826,0.0
51779.0,STARLINK-3611,PAYLOAD,2023-09-09 08:01:06,15.08840749,0.0001353,53.2163,114.8925,83.9705,276.1441,9.5189e-05,1.227e-05,0.0,0 STARLINK-3611,1 51779U 22017M   23252.33409940  .00001227  00000-0  95189-4 0  9995,2 51779  53.2163 114.8925 0001353  83.9705 276.1441 15.08840749 84839,6917.878,95.438,540.679,538.807,0.0
51779.0,STARLINK-3611,PAYLOAD,2023-09-09 19:08:46,15.08857834,0.0001169,53.2173,112.8108,80.2653,279.8471,0.00019022,2.742e-05,0.0,0 STARLINK-3611,1 51779U 22017M   23252.79776278  .00002742  00000-0  19022-3 0  9990,2 51779  53.2173 112.8108 0001169  80.2653 279.8471 15.08857834 86397,6917.826,95.436,540.5,538.882,0.0
51779.0,STARLINK-3611,PAYLOAD,2023-09-10 01:30:18,15.08867394,0.000118,53.2164,111.6205,82.2145,277.8981,0.00026251,3.896e-05,0.0,0 STARLINK-3611,1 51779U 22017M   23253.06271201  .00003896  00000-0  26251-3 0  9990,2 51779  53.2164 111.6205 0001180  82.2145 277.8981 15.08867394 86434,6917.797,95.436,540.478,538.845,0.0
51779.0,STARLINK-3611,PAYLOAD,2023-09-10 18:59:35,15.08838835,0.0001493,53.2184,108.3426,88.4695,271.6468,-7.4506e-05,-1.474e-05,0.0,0 STARLINK-3611,1 51779U 22017M   23253.79138153 -.00001474  00000-0 -74506-4 0  9997,2 51779  53.2184 108.3426 0001493  88.4695 271.6468 15.08838835 86541,6917.884,95.438,540.782,538.716,0.0
51779.0,STARLINK-3611,PAYLOAD,2023-09-11 07:42:40,15.08834745,0.0001324,53.2176,105.9715,91.1664,268.948,-7.8659e-05,-1.539e-05,0.0,0 STARLINK-3611,1 51779U 22017M   23254.32130564 -.00001539  00000-0 -78659-4 0  9990,2 51779  53.2176 105.9715 0001324  91.1664 268.9480 15.08834745 85139,6917.896,95.438,540.677,538.846,0.0
51779.0,STARLINK-3611,PAYLOAD,2023-09-11 23:36:31,15.08849865,0.0001254,53.2169,102.9968,97.928,262.1855,-0.00014817,-2.646e-05,0.0,0 STARLINK-3611,1 51779U 22017M   23254.98369737 -.00002646  00000-0 -14817-3 0  9993,2 51779  53.2169 102.9968 0001254  97.9280 262.1855 15.08849865 86725,6917.85,95.437,540.583,538.848,0.0
51779.0,STARLINK-3611,PAYLOAD,2023-09-12 13:55:00,15.08829297,0.0001307,53.2172,100.3203,98.9359,261.1781,0.00015923,2.246e-05,0.0,0 STARLINK-3611,1 51779U 22017M   23255.57986417  .00002246  00000-0  15923-3 0  9992,2 51779  53.2172 100.3203 0001307  98.9359 261.1781 15.08829297 85329,6917.913,95.438,540.682,538.874,0.0
51779.0,STARLINK-3611,PAYLOAD,2023-09-12 17:05:46,15.08833302,0.0001285,53.217,99.7264,95.9665,264.1473,0.00016347,2.314e-05,0.0,0 STARLINK-3611,1 51779U 22017M   23255.71234293  .00002314  00000-0  16347-3 0  9993,2 51779  53.2170  99.7264 0001285  95.9665 264.1473 15.08833302 86837,6917.901,95.438,540.655,538.877,0.0
51779.0,STARLINK-3611,PAYLOAD,2023-09-12 20:16:32,15.0883776,0.0001306,53.2171,99.1314,97.1879,262.9262,0.000204,2.96e-05,0.0,0 STARLINK-3611,1 51779U 22017M   23255.84482046  .00002960  00000-0  20400-3 0  9990,2 51779  53.2171  99.1314 0001306  97.1879 262.9262 15.08837760 85364,6917.887,95.438,540.656,538.849,0.0
51779.0,STARLINK-3611,PAYLOAD,2023-09-13 18:31:56,15.08845428,0.0001337,53.2173,94.9679,100.2428,259.8715,0.00016035,2.265e-05,0.0,0 STARLINK-3611,1 51779U 22017M   23256.77217840  .00002265  00000-0  16035-3 0  9998,2 51779  53.2173  94.9679 0001337 100.2428 259.8715 15.08845428 86991,6917.864,95.437,540.654,538.804,0.0
51779.0,STARLINK-3611,PAYLOAD,2023-09-13 20:07:19,15.08848686,0.0001275,53.2171,94.6711,96.065,264.0487,0.00016771,2.383e-05,0.0,0 STARLINK-3611,1 51779U 22017M   23256.83841646  .00002383  00000-0  16771-3 0  9990,2 51779  53.2171  94.6711 0001275  96.0650 264.0487 15.08848686 85513,6917.854,95.437,540.601,538.837,0.0
51779.0,STARLINK-3611,PAYLOAD,2023-09-14 13:36:34,15.08830302,0.0001125,53.2166,91.4006,79.3152,280.7966,-0.00013108,-2.373e-05,0.0,0 STARLINK-3611,1 51779U 22017M   23257.56706998 -.00002373  00000-0 -13108-3 0  9993,2 51779  53.2166  91.4006 0001125  79.3152 280.7966 15.08830302 85629,6917.91,95.438,540.553,538.997,0.0
51779.0,STARLINK-3611,PAYLOAD,2023-09-14 19:58:07,15.08828347,0.0001217,53.2165,90.211,82.1984,277.9147,-0.0001516,-2.699e-05,0.0,0 STARLINK-3611,1 51779U 22017M   23257.83203212 -.00002699  00000-0 -15160-3 0  9995,2 51779  53.2165  90.2110 0001217  82.1984 277.9147 15.08828347 87153,6917.916,95.438,540.623,538.939,0.0
51779.0,STARLINK-3611,PAYLOAD,2023-09-15 11:51:58,15.08835429,0.0001182,53.2164,87.236,77.1085,283.0039,-4.3558e-05,-9.81e-06,0.0,0 STARLINK-3611,1 51779U 22017M   23258.49443150 -.00000981  00000-0 -43558-4 0  9990,2 51779  53.2164  87.2360 0001182  77.1085 283.0039 15.08835429 85764,6917.894,95.438,540.577,538.942,0.0
51779.0,STARLINK-3611,PAYLOAD,2023-09-15 18:13:31,15.08842367,0.0001232,53.2167,86.0476,82.7831,277.3301,7.4746e-05,9.02e-06,0.0,0 STARLINK-3611,1 51779U 22017M   23258.75938812  .00000902  00000-0  74746-4 0  9997,2 51779  53.2167  86.0476 0001232  82.7831 277.3301 15.08842367 87296,6917.873,95.437,540.59,538.886,0.0
51779.0,STARLINK-3611,PAYLOAD,2023-09-16 13:18:09,15.08838011,0.0001272,53.2172,82.4801,82.129,277.9847,0.00026266,3.895e-05,0.0,0 STARLINK-3611,1 51779U 22017M   23259.55427354  .00003895  00000-0  26266-3 0  9997,2 51779  53.2172  82.4801 0001272  82.1290 277.9847 15.08838011 85921,6917.886,95.438,540.631,538.872,0.0
51779.0,STARLINK-3611,PAYLOAD,2023-09-16 21:15:04,15.08849606,0.0001257,53.2168,80.9933,82.3583,277.7552,0.00034453,5.201e-05,0.0,0 STARLINK-3611,1 51779U 22017M   23259.88546901  .00005201  00000-0  34453-3 0  9993,2 51779  53.2168  80.9933 0001257  82.3583 277.7552 15.08849606 87469,6917.851,95.437,540.586,538.846,0.0
51779.0,STARLINK-3611,PAYLOAD,2023-09-17 13:08:55,15.08843588,0.0001314,53.2171,78.0206,87.0148,273.0994,0.0001264,1.725e-05,0.0,0 STARLINK-3611,1 51779U 22017M   23260.54787003  .00001725  00000-0  12640-3 0  9999,2 51779  53.2171  78.0206 0001314  87.0148 273.0994 15.08843588 86075,6917.869,95.437,540.643,538.825,0.0
51779.0,STARLINK-3611,PAYLOAD,2023-09-17 17:55:05,15.08843095,0.0001315,53.2176,77.1284,85.866,274.2483,8.1709e-05,1.013e-05,0.0,0 STARLINK-3611,1 51779U 22017M   23260.74659111  .00001013  00000-0  81709-4 0  9992,2 51779  53.2176  77.1284 0001315  85.8660 274.2483 15.08843095 87599,6917.871,95.437,540.646,538.826,0.0
51779.0,STARLINK-3611,PAYLOAD,2023-09-18 11:24:20,15.08838266,0.0001198,53.217,73.8556,85.6534,274.4595,4.7514e-05,4.68e-06,0.0,0 STARLINK-3611,1 51779U 22017M   23261.47523359  .00000468  00000-0  47514-4 0  9996,2 51779  53.2170  73.8556 0001198  85.6534 274.4595 15.08838266 86213,6917.886,95.438,540.579,538.922,0.0
51779.0,STARLINK-3611,PAYLOAD,2023-09-18 17:45:52,15.08840409,0.0001155,53.2167,72.666,86.3464,273.766,7.9236e-05,9.73e-06,0.0,0 STARLINK-3611,1 51779U 22017M   23261.74019256  .00000973  00000-0  79236-4 0  9999,2 51779  53.2167  72.6660 0001155  86.3464 273.7660 15.08840409 87741,6917.879,95.438,540.543,538.945,0.0
51779.0,STARLINK-3611,PAYLOAD,2023-09-19 04:53:34,15.08848501,0.0001144,53.2172,70.5851,84.5062,275.606,0.00015021,2.104e-05,0.0,0 STARLINK-3611,1 51779U 22017M   23262.20386762  .00002104  00000-0  15021-3 0  9999,2 51779  53.2172  70.5851 0001144  84.5062 275.6060 15.08848501 87812,6917.854,95.437,540.511,538.928,0.0
51779.0,STARLINK-3611,PAYLOAD,2023-09-20 11:05:54,15.08837443,0.0001307,53.2162,64.9353,84.1153,275.9988,5.3347e-05,5.61e-06,0.0,0 STARLINK-3611,1 51779U 22017M   23263.46243466  .00000561  00000-0  53347-4 0  9990,2 51779  53.2162  64.9353 0001307  84.1153 275.9988 15.08837443 88000,6917.888,95.438,540.657,538.849,0.0
51779.0,STARLINK-3611,PAYLOAD,2023-09-20 14:16:40,15.08837104,0.0001312,53.2165,64.3406,82.9085,277.2057,4.8829e-05,4.89e-06,0.0,0 STARLINK-3611,1 51779U 22017M   23263.59491526  .00000489  00000-0  48829-4 0  9994,2 51779  53.2165  64.3406 0001312  82.9085 277.2057 15.08837104 86534,6917.889,95.438,540.662,538.847,0.0
51779.0,STARLINK-3611,PAYLOAD,2023-09-20 17:27:26,15.08853884,0.0001176,53.218,63.7455,79.152,280.9604,0.00032294,4.857e-05,0.0,0 STARLINK-3611,1 51779U 22017M   23263.72738727  .00004857  00000-0  32294-3 0  9997,2 51779  53.2180  63.7455 0001176  79.1520 280.9604 15.08853884 88048,6917.838,95.437,540.516,538.889,0.0
51779.0,STARLINK-3611,PAYLOAD,2023-09-21 10:56:41,15.08841375,0.0001276,53.2177,60.4744,78.6434,281.4701,9.3673e-05,1.203e-05,0.0,0 STARLINK-3611,1 51779U 22017M   23264.45603142  .00001203  00000-0  93673-4 0  9991,2 51779  53.2177  60.4744 0001276  78.6434 281.4701 15.08841375 88156,6917.876,95.437,540.624,538.858,0.0
51779.0,STARLINK-3611,PAYLOAD,2023-09-21 17:18:13,15.08839182,0.0001283,53.2182,59.2832,85.0555,275.0583,2.7534e-05,1.5e-06,0.0,0 STARLINK-3611,1 51779U 22017M   23264.72099266  .00000150  00000-0  27534-4 0  9990,2 51779  53.2182  59.2832 0001283  85.0555 275.0583 15.08839182 86709,6917.883,95.438,540.635,538.86,0.0
